{
  "type": "FeatureCollection",
  "features": [
    {
      "type": "Feature",
      "properties": {
        "norad_id": 40938,
        "name": "BEIDOU-3S IGSO-2S (C56)",
        "group": "beidou",
        "lat": 16.065021701447144,
        "lon": 66.72517201743806,
        "alt_km": 35563.29073374377,
        "timestamp": "2025-12-17T15:50:10.044716+00:00",
        "meta_object_name": "BEIDOU-3S IGSO-2S (C56)",
        "meta_object_id": "2015-053A",
        "meta_epoch": "2025-12-16T17:14:16.267776",
        "meta_mean_motion": 1.00269476,
        "meta_eccentricity": 0.00605277,
        "meta_inclination": 49.5044,
        "meta_ra_of_asc_node": 260.9581,
        "meta_arg_of_pericenter": 188.7289,
        "meta_mean_anomaly": 350.4326,
        "meta_ephemeris_type": 0,
        "meta_classification_type": "U",
        "meta_norad_cat_id": 40938,
        "meta_element_set_no": 999,
        "meta_rev_at_epoch": 3752,
        "meta_bstar": 0,
        "meta_mean_motion_dot": -1.34e-06,
        "meta_mean_motion_ddot": 0,
        "tle_line1": "1 40938U 15053A   25350.71824384 -.00000134  00000+0  00000+0 0  9997",
        "tle_line2": "2 40938  49.5044 260.9581 0060527 188.7289 350.4326  1.00269476 37521"
      },
      "geometry": {
        "type": "Point",
        "coordinates": [
          66.72517201743806,
          16.065021701447144
        ]
      }
    },
    {
      "type": "Feature",
      "properties": {
        "norad_id": 41434,
        "name": "BEIDOU-2 IGSO-6 (C13)",
        "group": "beidou",
        "lat": 15.313634414732176,
        "lon": 48.98863377428563,
        "alt_km": 35996.68691954621,
        "timestamp": "2025-12-17T15:50:10.044729+00:00",
        "meta_object_name": "BEIDOU-2 IGSO-6 (C13)",
        "meta_object_id": "2016-021A",
        "meta_epoch": "2025-12-11T15:29:12.615360",
        "meta_mean_motion": 1.00293077,
        "meta_eccentricity": 0.00608616,
        "meta_inclination": 59.9644,
        "meta_ra_of_asc_node": 39.9082,
        "meta_arg_of_pericenter": 229.9753,
        "meta_mean_anomaly": 135.9177,
        "meta_ephemeris_type": 0,
        "meta_classification_type": "U",
        "meta_norad_cat_id": 41434,
        "meta_element_set_no": 999,
        "meta_rev_at_epoch": 3560,
        "meta_bstar": 0,
        "meta_mean_motion_dot": -1.62e-06,
        "meta_mean_motion_ddot": 0,
        "tle_line1": "1 41434U 16021A   25345.64528490 -.00000162  00000+0  00000+0 0  9991",
        "tle_line2": "2 41434  59.9644  39.9082 0060861 229.9753 135.9177  1.00293077 35600"
      },
      "geometry": {
        "type": "Point",
        "coordinates": [
          48.98863377428563,
          15.313634414732176
        ]
      }
    },
    {
      "type": "Feature",
      "properties": {
        "norad_id": 41586,
        "name": "BEIDOU-2 G7 (C03)",
        "group": "beidou",
        "lat": 0.2321843897942175,
        "lon": 74.51384959643735,
        "alt_km": 35764.34297443089,
        "timestamp": "2025-12-17T15:50:10.044742+00:00",
        "meta_object_name": "BEIDOU-2 G7 (C03)",
        "meta_object_id": "2016-037A",
        "meta_epoch": "2025-12-17T07:00:07.338240",
        "meta_mean_motion": 1.00273126,
        "meta_eccentricity": 0.00050563,
        "meta_inclination": 1.768,
        "meta_ra_of_asc_node": 67.8201,
        "meta_arg_of_pericenter": 3.4641,
        "meta_mean_anomaly": 230.3643,
        "meta_ephemeris_type": 0,
        "meta_classification_type": "U",
        "meta_norad_cat_id": 41586,
        "meta_element_set_no": 999,
        "meta_rev_at_epoch": 506,
        "meta_bstar": 0,
        "meta_mean_motion_dot": -3.3e-06,
        "meta_mean_motion_ddot": 0,
        "tle_line1": "1 41586U 16037A   25351.29175160 -.00000330  00000+0  00000+0 0  9993",
        "tle_line2": "2 41586   1.7680  67.8201 0005056   3.4641 230.3643  1.00273126  5060"
      },
      "geometry": {
        "type": "Point",
        "coordinates": [
          74.51384959643735,
          0.2321843897942175
        ]
      }
    },
    {
      "type": "Feature",
      "properties": {
        "norad_id": 43001,
        "name": "BEIDOU-3 M1 (C19)",
        "group": "beidou",
        "lat": 9.865428711285222,
        "lon": 75.67886154150942,
        "alt_km": 21517.714040769624,
        "timestamp": "2025-12-17T15:50:10.044754+00:00",
        "meta_object_name": "BEIDOU-3 M1 (C19)",
        "meta_object_id": "2017-069A",
        "meta_epoch": "2025-12-17T02:31:31.300896",
        "meta_mean_motion": 1.86231373,
        "meta_eccentricity": 0.00093891,
        "meta_inclination": 56.5309,
        "meta_ra_of_asc_node": 69.0894,
        "meta_arg_of_pericenter": 302.653,
        "meta_mean_anomaly": 57.2803,
        "meta_ephemeris_type": 0,
        "meta_classification_type": "U",
        "meta_norad_cat_id": 43001,
        "meta_element_set_no": 999,
        "meta_rev_at_epoch": 5521,
        "meta_bstar": 0,
        "meta_mean_motion_dot": -7.5e-07,
        "meta_mean_motion_ddot": 0,
        "tle_line1": "1 43001U 17069A   25351.10522339 -.00000075  00000+0  00000+0 0  9993",
        "tle_line2": "2 43001  56.5309  69.0894 0009389 302.6530  57.2803  1.86231373 55214"
      },
      "geometry": {
        "type": "Point",
        "coordinates": [
          75.67886154150942,
          9.865428711285222
        ]
      }
    },
    {
      "type": "Feature",
      "properties": {
        "norad_id": 43002,
        "name": "BEIDOU-3 M2 (C20)",
        "group": "beidou",
        "lat": 41.926123468694726,
        "lon": 105.50230797295494,
        "alt_km": 21520.61604687564,
        "timestamp": "2025-12-17T15:50:10.044765+00:00",
        "meta_object_name": "BEIDOU-3 M2 (C20)",
        "meta_object_id": "2017-069B",
        "meta_epoch": "2025-12-17T01:02:46.646016",
        "meta_mean_motion": 1.86230935,
        "meta_eccentricity": 0.00064468,
        "meta_inclination": 56.5305,
        "meta_ra_of_asc_node": 69.1275,
        "meta_arg_of_pericenter": 330.7848,
        "meta_mean_anomaly": 29.2027,
        "meta_ephemeris_type": 0,
        "meta_classification_type": "U",
        "meta_norad_cat_id": 43002,
        "meta_element_set_no": 999,
        "meta_rev_at_epoch": 5520,
        "meta_bstar": 0,
        "meta_mean_motion_dot": -7.5e-07,
        "meta_mean_motion_ddot": 0,
        "tle_line1": "1 43002U 17069B   25351.04359544 -.00000075  00000+0  00000+0 0  9993",
        "tle_line2": "2 43002  56.5305  69.1275 0006446 330.7848  29.2027  1.86230935 55209"
      },
      "geometry": {
        "type": "Point",
        "coordinates": [
          105.50230797295494,
          41.926123468694726
        ]
      }
    },
    {
      "type": "Feature",
      "properties": {
        "norad_id": 43107,
        "name": "BEIDOU-3 M7 (C27)",
        "group": "beidou",
        "lat": -35.54481287600445,
        "lon": 159.26489038812565,
        "alt_km": 21538.991547881455,
        "timestamp": "2025-12-17T15:50:10.044777+00:00",
        "meta_object_name": "BEIDOU-3 M7 (C27)",
        "meta_object_id": "2018-003A",
        "meta_epoch": "2025-12-13T13:33:25.741728",
        "meta_mean_motion": 1.86232202,
        "meta_eccentricity": 0.00026561,
        "meta_inclination": 54.4958,
        "meta_ra_of_asc_node": 308.7854,
        "meta_arg_of_pericenter": 70.3198,
        "meta_mean_anomaly": 289.6984,
        "meta_ephemeris_type": 0,
        "meta_classification_type": "U",
        "meta_norad_cat_id": 43107,
        "meta_element_set_no": 999,
        "meta_rev_at_epoch": 5389,
        "meta_bstar": 0,
        "meta_mean_motion_dot": -9.8e-07,
        "meta_mean_motion_ddot": 0,
        "tle_line1": "1 43107U 18003A   25347.56488127 -.00000098  00000+0  00000+0 0  9995",
        "tle_line2": "2 43107  54.4958 308.7854 0002656  70.3198 289.6984  1.86232202 53891"
      },
      "geometry": {
        "type": "Point",
        "coordinates": [
          159.26489038812565,
          -35.54481287600445
        ]
      }
    },
    {
      "type": "Feature",
      "properties": {
        "norad_id": 43108,
        "name": "BEIDOU-3 M8 (C28)",
        "group": "beidou",
        "lat": -53.7822312839504,
        "lon": -154.39301393864457,
        "alt_km": 21521.045165274892,
        "timestamp": "2025-12-17T15:50:10.044788+00:00",
        "meta_object_name": "BEIDOU-3 M8 (C28)",
        "meta_object_id": "2018-003B",
        "meta_epoch": "2025-12-15T15:46:56.352288",
        "meta_mean_motion": 1.86230781,
        "meta_eccentricity": 0.00047156,
        "meta_inclination": 54.4868,
        "meta_ra_of_asc_node": 308.6954,
        "meta_arg_of_pericenter": 275.6738,
        "meta_mean_anomaly": 84.2592,
        "meta_ephemeris_type": 0,
        "meta_classification_type": "U",
        "meta_norad_cat_id": 43108,
        "meta_element_set_no": 999,
        "meta_rev_at_epoch": 5394,
        "meta_bstar": 0,
        "meta_mean_motion_dot": -9.9e-07,
        "meta_mean_motion_ddot": 0,
        "tle_line1": "1 43108U 18003B   25349.65759667 -.00000099  00000+0  00000+0 0  9999",
        "tle_line2": "2 43108  54.4868 308.6954 0004715 275.6738  84.2592  1.86230781 53940"
      },
      "geometry": {
        "type": "Point",
        "coordinates": [
          -154.39301393864457,
          -53.7822312839504
        ]
      }
    }
  ]
}